ONEWEB-0247             
1 48777U 21045L   24061.45192494 -.00000481  00000+0 -13108-2 0  9995
2 48777  87.8941  65.9466 0002480  62.5652 297.5730 13.15541933134262
ONEWEB-0245             
1 48778U 21045M   24061.52319727  .00000054  00000+0  11047-3 0  9999
2 48778  87.8946  65.9247 0001628  83.1860 276.9456 13.15549781134241
ONEWEB-0229             
1 48779U 21045N   24061.51845300  .00000027  00000+0  38292-4 0  9992
2 48779  87.8946  65.9178 0002025  83.7903 276.3457 13.15549335134274
ONEWEB-0228             
1 48780U 21045P   24061.53350444  .00000143  00000+0  34497-3 0  9997
2 48780  87.8945  65.8926 0001962  85.5007 274.6348 13.15549378134197
ONEWEB-0232             
1 48781U 21045Q   24061.52637499  .00000104  00000+0  24183-3 0  9993
2 48781  87.8940  65.9204 0001948  84.8720 275.2633 13.15549623134514
ONEWEB-0231             
1 48782U 21045R   24061.50417459 -.00000243  00000+0 -68069-3 0  9991
2 48782  87.8957  65.9381 0001965  79.9664 280.1688 13.15548940134202
ONEWEB-0234             
1 48783U 21045S   24061.52400617  .00000140  00000+0  33851-3 0  9997
2 48783  87.8948  65.9016 0001238 136.3701 223.7527 13.15549368134346
ONEWEB-0238             
1 48784U 21045T   24061.55410193  .00000044  00000+0  82027-4 0  9994
2 48784  87.8949  65.9142 0001827  92.3125 267.8214 13.15547552134247
